[{"OBJECT_NAME":"STARLINK-33895","OBJECT_ID":"2025-098J","EPOCH":"2026-01-12T12:55:48.535680","MEAN_MOTION":15.00351198,"ECCENTRICITY":0.00050824,"INCLINATION":70.0021,"RA_OF_ASC_NODE":55.9526,"ARG_OF_PERICENTER":280.1083,"MEAN_ANOMALY":79.9504,"EPHEMERIS_TYPE":0,"CLASSIFICATION_TYPE":"U","NORAD_CAT_ID":63934,"ELEMENT_SET_NO":999,"REV_AT_EPOCH":3816,"BSTAR":0.051107511,"MEAN_MOTION_DOT":0.0068236,"MEAN_MOTION_DDOT":0},{"OBJECT_NAME":"STARLINK-34005","OBJECT_ID":"2025-098K","EPOCH":"2026-01-12T20:21:35.765568","MEAN_MOTION":14.98327604,"ECCENTRICITY":0.00031809,"INCLINATION":70.0015,"RA_OF_ASC_NODE":55.4191,"ARG_OF_PERICENTER":270.9412,"MEAN_ANOMALY":89.1382,"EPHEMERIS_TYPE":0,"CLASSIFICATION_TYPE":"U","NORAD_CAT_ID":63935,"ELEMENT_SET_NO":999,"REV_AT_EPOCH":3819,"BSTAR":0.00024779555,"MEAN_MOTION_DOT":2.865e-5,"MEAN_MOTION_DDOT":0},{"OBJECT_NAME":"STARLINK-34027","OBJECT_ID":"2025-098L","EPOCH":"2026-01-12T20:33:34.608384","MEAN_MOTION":14.98341412,"ECCENTRICITY":0.00031375,"INCLINATION":70.0015,"RA_OF_ASC_NODE":55.0475,"ARG_OF_PERICENTER":270.285,"MEAN_ANOMALY":89.795,"EPHEMERIS_TYPE":0,"CLASSIFICATION_TYPE":"U","NORAD_CAT_ID":63936,"ELEMENT_SET_NO":999,"REV_AT_EPOCH":3819,"BSTAR":1.1304913e-5,"MEAN_MOTION_DOT":4.2e-7,"MEAN_MOTION_DDOT":0},{"OBJECT_NAME":"STARLINK-34035","OBJECT_ID":"2025-098M","EPOCH":"2026-01-12T19:39:31.186944","MEAN_MOTION":14.98331819,"ECCENTRICITY":0.00030442,"INCLINATION":70.0017,"RA_OF_ASC_NODE":55.3267,"ARG_OF_PERICENTER":269.1293,"MEAN_ANOMALY":90.9518,"EPHEMERIS_TYPE":0,"CLASSIFICATION_TYPE":"U","NORAD_CAT_ID":63937,"ELEMENT_SET_NO":999,"REV_AT_EPOCH":3818,"BSTAR":0.00012335592,"MEAN_MOTION_DOT":1.379e-5,"MEAN_MOTION_DDOT":0},{"OBJECT_NAME":"STARLINK-33988","OBJECT_ID":"2025-098N","EPOCH":"2026-01-12T11:56:38.297472","MEAN_MOTION":14.98328243,"ECCENTRICITY":0.0002913,"INCLINATION":70.0022,"RA_OF_ASC_NODE":56.2108,"ARG_OF_PERICENTER":278.7708,"MEAN_ANOMALY":81.3121,"EPHEMERIS_TYPE":0,"CLASSIFICATION_TYPE":"U","NORAD_CAT_ID":63938,"ELEMENT_SET_NO":999,"REV_AT_EPOCH":3813,"BSTAR":-1.2580342e-5,"MEAN_MOTION_DOT":-2.43e-6,"MEAN_MOTION_DDOT":0},{"OBJECT_NAME":"STARLINK-34020","OBJECT_ID":"2025-098P","EPOCH":"2026-01-12T12:50:56.007744","MEAN_MOTION":14.98330639,"ECCENTRICITY":0.00031592,"INCLINATION":70.0022,"RA_OF_ASC_NODE":55.9372,"ARG_OF_PERICENTER":270.8544,"MEAN_ANOMALY":89.2254,"EPHEMERIS_TYPE":0,"CLASSIFICATION_TYPE":"U","NORAD_CAT_ID":63939,"ELEMENT_SET_NO":999,"REV_AT_EPOCH":3814,"BSTAR":0.00011376719,"MEAN_MOTION_DOT":1.265e-5,"MEAN_MOTION_DDOT":0},{"OBJECT_NAME":"STARLINK-34021","OBJECT_ID":"2025-098Q","EPOCH":"2026-01-12T20:27:35.815104","MEAN_MOTION":14.98354974,"ECCENTRICITY":0.00034098,"INCLINATION":70.0015,"RA_OF_ASC_NODE":55.4335,"ARG_OF_PERICENTER":277.5079,"MEAN_ANOMALY":82.5693,"EPHEMERIS_TYPE":0,"CLASSIFICATION_TYPE":"U","NORAD_CAT_ID":63940,"ELEMENT_SET_NO":999,"REV_AT_EPOCH":3818,"BSTAR":0.00058568346,"MEAN_MOTION_DOT":6.907e-5,"MEAN_MOTION_DDOT":0},{"OBJECT_NAME":"STARLINK-34004","OBJECT_ID":"2025-098R","EPOCH":"2026-01-12T19:27:29.544768","MEAN_MOTION":14.98333352,"ECCENTRICITY":0.00031102,"INCLINATION":70.002,"RA_OF_ASC_NODE":55.2871,"ARG_OF_PERICENTER":271.7101,"MEAN_ANOMALY":88.3701,"EPHEMERIS_TYPE":0,"CLASSIFICATION_TYPE":"U","NORAD_CAT_ID":63941,"ELEMENT_SET_NO":999,"REV_AT_EPOCH":3818,"BSTAR":0.00013313622,"MEAN_MOTION_DOT":1.496e-5,"MEAN_MOTION_DDOT":0},{"OBJECT_NAME":"STARLINK-34014","OBJECT_ID":"2025-098S","EPOCH":"2026-01-12T19:33:17.423136","MEAN_MOTION":14.98339737,"ECCENTRICITY":0.00030311,"INCLINATION":70.0016,"RA_OF_ASC_NODE":55.3096,"ARG_OF_PERICENTER":268.731,"MEAN_ANOMALY":91.3502,"EPHEMERIS_TYPE":0,"CLASSIFICATION_TYPE":"U","NORAD_CAT_ID":63942,"ELEMENT_SET_NO":999,"REV_AT_EPOCH":3818,"BSTAR":0.00047877532,"MEAN_MOTION_DOT":5.626e-5,"MEAN_MOTION_DDOT":0},{"OBJECT_NAME":"STARLINK-33985","OBJECT_ID":"2025-098T","EPOCH":"2026-01-12T12:44:41.071488","MEAN_MOTION":14.98331458,"ECCENTRICITY":0.00031905,"INCLINATION":70.0015,"RA_OF_ASC_NODE":55.909,"ARG_OF_PERICENTER":270.9564,"MEAN_ANOMALY":89.1229,"EPHEMERIS_TYPE":0,"CLASSIFICATION_TYPE":"U","NORAD_CAT_ID":63943,"ELEMENT_SET_NO":999,"REV_AT_EPOCH":3814,"BSTAR":0.00013565962,"MEAN_MOTION_DOT":1.526e-5,"MEAN_MOTION_DDOT":0},{"OBJECT_NAME":"STARLINK-33996","OBJECT_ID":"2025-098U","EPOCH":"2026-01-13T00:00:02.000160","MEAN_MOTION":14.982966,"ECCENTRICITY":0.00032333,"INCLINATION":70.0016,"RA_OF_ASC_NODE":54.9438,"ARG_OF_PERICENTER":268.9302,"MEAN_ANOMALY":279.187,"EPHEMERIS_TYPE":0,"CLASSIFICATION_TYPE":"U","NORAD_CAT_ID":63944,"ELEMENT_SET_NO":999,"REV_AT_EPOCH":572,"BSTAR":0.0050686184,"MEAN_MOTION_DOT":0.00060861,"MEAN_MOTION_DDOT":0},{"OBJECT_NAME":"STARLINK-34036","OBJECT_ID":"2025-098V","EPOCH":"2026-01-12T20:09:34.595136","MEAN_MOTION":14.98327034,"ECCENTRICITY":0.00029684,"INCLINATION":70.0031,"RA_OF_ASC_NODE":55.3978,"ARG_OF_PERICENTER":271.2174,"MEAN_ANOMALY":88.8645,"EPHEMERIS_TYPE":0,"CLASSIFICATION_TYPE":"U","NORAD_CAT_ID":63945,"ELEMENT_SET_NO":999,"REV_AT_EPOCH":3818,"BSTAR":0.00026318344,"MEAN_MOTION_DOT":3.048e-5,"MEAN_MOTION_DDOT":0},{"OBJECT_NAME":"STARLINK-34039","OBJECT_ID":"2025-098W","EPOCH":"2026-01-12T20:03:33.933888","MEAN_MOTION":14.98329057,"ECCENTRICITY":0.00026101,"INCLINATION":70.0028,"RA_OF_ASC_NODE":55.3827,"ARG_OF_PERICENTER":271.1936,"MEAN_ANOMALY":88.8924,"EPHEMERIS_TYPE":0,"CLASSIFICATION_TYPE":"U","NORAD_CAT_ID":63946,"ELEMENT_SET_NO":999,"REV_AT_EPOCH":3818,"BSTAR":0.00026980763,"MEAN_MOTION_DOT":3.128e-5,"MEAN_MOTION_DDOT":0},{"OBJECT_NAME":"STARLINK-34034","OBJECT_ID":"2025-098X","EPOCH":"2026-01-12T20:03:19.608768","MEAN_MOTION":14.9832902,"ECCENTRICITY":0.00028201,"INCLINATION":70.0023,"RA_OF_ASC_NODE":55.3821,"ARG_OF_PERICENTER":272.2454,"MEAN_ANOMALY":87.8382,"EPHEMERIS_TYPE":0,"CLASSIFICATION_TYPE":"U","NORAD_CAT_ID":63947,"ELEMENT_SET_NO":999,"REV_AT_EPOCH":3818,"BSTAR":0.00025814905,"MEAN_MOTION_DOT":2.988e-5,"MEAN_MOTION_DDOT":0},{"OBJECT_NAME":"STARLINK-33983","OBJECT_ID":"2025-098Y","EPOCH":"2026-01-12T19:33:30.320064","MEAN_MOTION":14.98332969,"ECCENTRICITY":0.0003262,"INCLINATION":70.002,"RA_OF_ASC_NODE":55.3103,"ARG_OF_PERICENTER":275.2318,"MEAN_ANOMALY":84.8469,"EPHEMERIS_TYPE":0,"CLASSIFICATION_TYPE":"U","NORAD_CAT_ID":63948,"ELEMENT_SET_NO":999,"REV_AT_EPOCH":3818,"BSTAR":0.00040391774,"MEAN_MOTION_DOT":4.73e-5,"MEAN_MOTION_DDOT":0},{"OBJECT_NAME":"STARLINK-33993","OBJECT_ID":"2025-098Z","EPOCH":"2026-01-13T00:00:02.000160","MEAN_MOTION":14.98294625,"ECCENTRICITY":0.00034157,"INCLINATION":70.0015,"RA_OF_ASC_NODE":54.7013,"ARG_OF_PERICENTER":270.5006,"MEAN_ANOMALY":120.2044,"EPHEMERIS_TYPE":0,"CLASSIFICATION_TYPE":"U","NORAD_CAT_ID":63949,"ELEMENT_SET_NO":999,"REV_AT_EPOCH":573,"BSTAR":0.0060263836,"MEAN_MOTION_DOT":0.00072497,"MEAN_MOTION_DDOT":0}]
