STARLINK-33895          
1 63934U 25098J   26012.53875620  .00682360  00000+0  51108-1 0  9996
2 63934  70.0021  55.9526 0005082 280.1083  79.9504 15.00351198 38161
STARLINK-34005          
1 63935U 25098K   26012.84833062  .00002865  00000+0  24780-3 0  9999
2 63935  70.0015  55.4191 0003180 270.9412  89.1382 14.98327604 38199
STARLINK-34027          
1 63936U 25098L   26012.85665056  .00000042  00000+0  11305-4 0  9992
2 63936  70.0015  55.0475 0003137 270.2850  89.7950 14.98341412 38192
STARLINK-34035          
1 63937U 25098M   26012.81911096  .00001379  00000+0  12336-3 0  9995
2 63937  70.0017  55.3267 0003044 269.1293  90.9518 14.98331819 38185
STARLINK-33988          
1 63938U 25098N   26012.49766548 -.00000243  00000+0 -12580-4 0  9993
2 63938  70.0022  56.2108 0002913 278.7708  81.3121 14.98328243 38133
STARLINK-34020          
1 63939U 25098P   26012.53537046  .00001265  00000+0  11377-3 0  9993
2 63939  70.0022  55.9372 0003159 270.8544  89.2254 14.98330639 38144
STARLINK-34021          
1 63940U 25098Q   26012.85249786  .00006907  00000+0  58568-3 0  9992
2 63940  70.0015  55.4335 0003409 277.5079  82.5693 14.98354974 38182
STARLINK-34004          
1 63941U 25098R   26012.81075862  .00001496  00000+0  13314-3 0  9999
2 63941  70.0020  55.2871 0003110 271.7101  88.3701 14.98333352 38184
STARLINK-34014          
1 63942U 25098S   26012.81478499  .00005626  00000+0  47878-3 0  9994
2 63942  70.0016  55.3096 0003031 268.7310  91.3502 14.98339737 38186
STARLINK-33985          
1 63943U 25098T   26012.53103092  .00001526  00000+0  13566-3 0  9990
2 63943  70.0015  55.9090 0003190 270.9564  89.1229 14.98331458 38147
STARLINK-33996          
1 63944U 25098U   26013.00002315  .00060861  00000+0  50686-2 0  9990
2 63944  70.0016  54.9438 0003233 268.9302 279.1870 14.98296600  5729
STARLINK-34036          
1 63945U 25098V   26012.83998374  .00003048  00000+0  26318-3 0  9990
2 63945  70.0031  55.3978 0002968 271.2174  88.8645 14.98327034 38186
STARLINK-34039          
1 63946U 25098W   26012.83580942  .00003128  00000+0  26981-3 0  9994
2 63946  70.0028  55.3827 0002610 271.1936  88.8924 14.98329057 38182
STARLINK-34034          
1 63947U 25098X   26012.83564362  .00002988  00000+0  25815-3 0  9991
2 63947  70.0023  55.3821 0002820 272.2454  87.8382 14.98329020 38189
STARLINK-33983          
1 63948U 25098Y   26012.81493426  .00004730  00000+0  40392-3 0  9996
2 63948  70.0020  55.3103 0003262 275.2318  84.8469 14.98332969 38182
STARLINK-33993          
1 63949U 25098Z   26013.00002315  .00072497  00000+0  60264-2 0  9996
2 63949  70.0015  54.7013 0003415 270.5006 120.2044 14.98294625  5737
